[
    {
        "Altitude(m)": 612513.9607048739,
        "Argument of Periapsis(deg)": 0.0,
        "Eccentricity": 0.0,
        "Inclination(deg)": 60.0,
        "Latitude(deg)": -28.13605739882278,
        "Longitude(deg)": -82.08688147647965,
        "Mean Anomaly(deg)": -147.2727,
        "RAAN(deg)": 180.0,
        "Satellite Name": "Test1 805",
        "Satellite Number": 805,
        "Semi-Major Axis(m)": 6980739.136638005,
        "Time(s)": 0
    },
    {
        "Altitude(m)": 612708.3290084582,
        "Argument of Periapsis(deg)": 0.00010418945913296404,
        "Eccentricity": 0.0,
        "Inclination(deg)": 60.0,
        "Latitude(deg)": -28.647796504641292,
        "Longitude(deg)": -81.72965070395209,
        "Mean Anomaly(deg)": -146.65259385453817,
        "RAAN(deg)": 179.99957995086024,
        "Satellite Name": "Test1 805",
        "Satellite Number": 805,
        "Semi-Major Axis(m)": 6980739.136638005,
        "Time(s)": 10
    },
    {
        "Altitude(m)": 612903.5239724695,
        "Argument of Periapsis(deg)": 0.0002083789182659281,
        "Eccentricity": 0.0,
        "Inclination(deg)": 60.0,
        "Latitude(deg)": -29.15829545479828,
        "Longitude(deg)": -81.36855268546486,
        "Mean Anomaly(deg)": -146.03248770907635,
        "RAAN(deg)": 179.99915990172053,
        "Satellite Name": "Test1 805",
        "Satellite Number": 805,
        "Semi-Major Axis(m)": 6980739.136638005,
        "Time(s)": 20
    },
    {
        "Altitude(m)": 613099.474386676,
        "Argument of Periapsis(deg)": 0.00031256837739889213,
        "Eccentricity": 0.0,
        "Inclination(deg)": 60.0,
        "Latitude(deg)": -29.66751718023946,
        "Longitude(deg)": -81.00347594981555,
        "Mean Anomaly(deg)": -145.4123815636145,
        "RAAN(deg)": 179.99873985258077,
        "Satellite Name": "Test1 805",
        "Satellite Number": 805,
        "Semi-Major Axis(m)": 6980739.136638005,
        "Time(s)": 30
    },
    {
        "Altitude(m)": 613296.1085590072,
        "Argument of Periapsis(deg)": 0.0004167578365318562,
        "Eccentricity": 0.0,
        "Inclination(deg)": 60.0,
        "Latitude(deg)": -30.175423621139984,
        "Longitude(deg)": -80.6343060383484,
        "Mean Anomaly(deg)": -144.79227541815268,
        "RAAN(deg)": 179.99831980344103,
        "Satellite Name": "Test1 805",
        "Satellite Number": 805,
        "Semi-Major Axis(m)": 6980739.136638005,
        "Time(s)": 40
    },
    {
        "Altitude(m)": 613493.354347249,
        "Argument of Periapsis(deg)": 0.0005209472956648203,
        "Eccentricity": 0.0,
        "Inclination(deg)": 60.0,
        "Latitude(deg)": -30.681975688395823,
        "Longitude(deg)": -80.26092644726721,
        "Mean Anomaly(deg)": -144.1721692726908,
        "RAAN(deg)": 179.99789975430127,
        "Satellite Name": "Test1 805",
        "Satellite Number": 805,
        "Semi-Major Axis(m)": 6980739.136638005,
        "Time(s)": 50
    },
    {
        "Altitude(m)": 613691.1391909678,
        "Argument of Periapsis(deg)": 0.0006251367547977843,
        "Eccentricity": 0.0,
        "Inclination(deg)": 60.0,
        "Latitude(deg)": -31.187133223775145,
        "Longitude(deg)": -79.8832180569586,
        "Mean Anomaly(deg)": -143.552063127229,
        "RAAN(deg)": 179.99747970516157,
        "Satellite Name": "Test1 805",
        "Satellite Number": 805,
        "Semi-Major Axis(m)": 6980739.136638005,
        "Time(s)": 60
    },
    {
        "Altitude(m)": 613889.3901435608,
        "Argument of Periapsis(deg)": 0.0007293262139307483,
        "Eccentricity": 0.0,
        "Inclination(deg)": 60.0,
        "Latitude(deg)": -31.690854958690267,
        "Longitude(deg)": -79.50105856136639,
        "Mean Anomaly(deg)": -142.93195698176714,
        "RAAN(deg)": 179.9970596560218,
        "Satellite Name": "Test1 805",
        "Satellite Number": 805,
        "Semi-Major Axis(m)": 6980739.136638005,
        "Time(s)": 70
    },
    {
        "Altitude(m)": 614088.0339045136,
        "Argument of Periapsis(deg)": 0.0008335156730637124,
        "Eccentricity": 0.0,
        "Inclination(deg)": 60.0,
        "Latitude(deg)": -32.19309847155145,
        "Longitude(deg)": -79.11432341047852,
        "Mean Anomaly(deg)": -142.31185083630533,
        "RAAN(deg)": 179.99663960688207,
        "Satellite Name": "Test1 805",
        "Satellite Number": 805,
        "Semi-Major Axis(m)": 6980739.136638005,
        "Time(s)": 80
    },
    {
        "Altitude(m)": 614286.9968517888,
        "Argument of Periapsis(deg)": 0.0009377051321966765,
        "Eccentricity": 0.0,
        "Inclination(deg)": 60.0,
        "Latitude(deg)": -32.693820143664055,
        "Longitude(deg)": -78.72288524038885,
        "Mean Anomaly(deg)": -141.6917446908435,
        "RAAN(deg)": 179.9962195577423,
        "Satellite Name": "Test1 805",
        "Satellite Number": 805,
        "Semi-Major Axis(m)": 6980739.136638005,
        "Time(s)": 90
    },
    {
        "Altitude(m)": 614486.2050743317,
        "Argument of Periapsis(deg)": 0.0010418945913296407,
        "Eccentricity": 0.0,
        "Inclination(deg)": 60.0,
        "Latitude(deg)": -33.19297511363248,
        "Longitude(deg)": -78.32661330404187,
        "Mean Anomaly(deg)": -141.0716385453817,
        "RAAN(deg)": 179.9957995086026,
        "Satellite Name": "Test1 805",
        "Satellite Number": 805,
        "Semi-Major Axis(m)": 6980739.136638005,
        "Time(s)": 100
    },
    {
        "Altitude(m)": 614685.584404716,
        "Argument of Periapsis(deg)": 0.0011460840504626045,
        "Eccentricity": 0.0,
        "Inclination(deg)": 60.0,
        "Latitude(deg)": -33.690517230234,
        "Longitude(deg)": -77.92537441580339,
        "Mean Anomaly(deg)": -140.4515323999199,
        "RAAN(deg)": 179.9953794594628,
        "Satellite Name": "Test1 805",
        "Satellite Number": 805,
        "Semi-Major Axis(m)": 6980739.136638005,
        "Time(s)": 110
    },
    {
        "Altitude(m)": 614885.0604518586,
        "Argument of Periapsis(deg)": 0.0012502735095955685,
        "Eccentricity": 0.0,
        "Inclination(deg)": 60.0,
        "Latitude(deg)": -34.18639900373049,
        "Longitude(deg)": -77.51903238439759,
        "Mean Anomaly(deg)": -139.83142625445805,
        "RAAN(deg)": 179.99495941032308,
        "Satellite Name": "Test1 805",
        "Satellite Number": 805,
        "Semi-Major Axis(m)": 6980739.136638005,
        "Time(s)": 120
    },
    {
        "Altitude(m)": 615084.5586338498,
        "Argument of Periapsis(deg)": 0.0013544629687285324,
        "Eccentricity": 0.0,
        "Inclination(deg)": 60.0,
        "Latitude(deg)": -34.680571555583384,
        "Longitude(deg)": -77.10744744741748,
        "Mean Anomaly(deg)": -139.2113201089962,
        "RAAN(deg)": 179.99453936118334,
        "Satellite Name": "Test1 805",
        "Satellite Number": 805,
        "Semi-Major Axis(m)": 6980739.136638005,
        "Time(s)": 130
    },
    {
        "Altitude(m)": 615284.0042108205,
        "Argument of Periapsis(deg)": 0.0014586524278614966,
        "Eccentricity": 0.0,
        "Inclination(deg)": 60.0,
        "Latitude(deg)": -35.17298456654446,
        "Longitude(deg)": -76.69047722064417,
        "Mean Anomaly(deg)": -138.5912139635344,
        "RAAN(deg)": 179.9941193120436,
        "Satellite Name": "Test1 805",
        "Satellite Number": 805,
        "Semi-Major Axis(m)": 6980739.136638005,
        "Time(s)": 140
    },
    {
        "Altitude(m)": 615483.3223178996,
        "Argument of Periapsis(deg)": 0.0015628418869944607,
        "Eccentricity": 0.0,
        "Inclination(deg)": 60.0,
        "Latitude(deg)": -35.66358622309604,
        "Longitude(deg)": -76.26797613683024,
        "Mean Anomaly(deg)": -137.97110781807254,
        "RAAN(deg)": 179.99369926290385,
        "Satellite Name": "Test1 805",
        "Satellite Number": 805,
        "Semi-Major Axis(m)": 6980739.136638005,
        "Time(s)": 150
    },
    {
        "Altitude(m)": 615682.43799816,
        "Argument of Periapsis(deg)": 0.0016670313461274247,
        "Eccentricity": 0.0,
        "Inclination(deg)": 60.0,
        "Latitude(deg)": -36.15232316221646,
        "Longitude(deg)": -75.83979488726683,
        "Mean Anomaly(deg)": -137.3510016726107,
        "RAAN(deg)": 179.9932792137641,
        "Satellite Name": "Test1 805",
        "Satellite Number": 805,
        "Semi-Major Axis(m)": 6980739.136638005,
        "Time(s)": 160
    },
    {
        "Altitude(m)": 615881.2762356322,
        "Argument of Periapsis(deg)": 0.0017712208052603888,
        "Eccentricity": 0.0,
        "Inclination(deg)": 60.0,
        "Latitude(deg)": -36.63914041445482,
        "Longitude(deg)": -75.40578137950128,
        "Mean Anomaly(deg)": -136.73089552714885,
        "RAAN(deg)": 179.99285916462438,
        "Satellite Name": "Test1 805",
        "Satellite Number": 805,
        "Semi-Major Axis(m)": 6980739.136638005,
        "Time(s)": 170
    },
    {
        "Altitude(m)": 616079.7619883065,
        "Argument of Periapsis(deg)": 0.001875410264393353,
        "Eccentricity": 0.0,
        "Inclination(deg)": 60.0,
        "Latitude(deg)": -37.123981345299505,
        "Longitude(deg)": -74.96578018599638,
        "Mean Anomaly(deg)": -136.11078938168703,
        "RAAN(deg)": 179.99243911548464,
        "Satellite Name": "Test1 805",
        "Satellite Number": 805,
        "Semi-Major Axis(m)": 6980739.136638005,
        "Time(s)": 180
    },
    {
        "Altitude(m)": 616277.8202211134,
        "Argument of Periapsis(deg)": 0.0019795997235263173,
        "Eccentricity": 0.0,
        "Inclination(deg)": 60.0,
        "Latitude(deg)": -37.60678759483462,
        "Longitude(deg)": -74.51963199720065,
        "Mean Anomaly(deg)": -135.4906832362252,
        "RAAN(deg)": 179.99201906634488,
        "Satellite Name": "Test1 805",
        "Satellite Number": 805,
        "Semi-Major Axis(m)": 6980739.136638005,
        "Time(s)": 190
    }
]